{
  "type": "FeatureCollection",
  "features": [
    {
      "type": "Feature",
      "properties": {
        "norad_id": 40730,
        "name": "GPS BIIF-10 (PRN 08)",
        "group": "gps-ops",
        "lat": -12.12248097625973,
        "lon": -94.73690555785967,
        "alt_km": 19962.25723366426,
        "timestamp": "2025-12-26T16:33:55.831427+00:00",
        "meta_object_name": "GPS BIIF-10 (PRN 08)",
        "meta_object_id": "2015-033A",
        "meta_epoch": "2025-12-24T17:11:33.292320",
        "meta_mean_motion": 2.00564999,
        "meta_eccentricity": 0.0111668,
        "meta_inclination": 54.1203,
        "meta_ra_of_asc_node": 274.2801,
        "meta_arg_of_pericenter": 27.125,
        "meta_mean_anomaly": 333.5048,
        "meta_ephemeris_type": 0,
        "meta_classification_type": "U",
        "meta_norad_cat_id": 40730,
        "meta_element_set_no": 999,
        "meta_rev_at_epoch": 7649,
        "meta_bstar": 0,
        "meta_mean_motion_dot": -1.6e-07,
        "meta_mean_motion_ddot": 0,
        "tle_line1": "1 40730U 15033A   25358.71635755 -.00000016  00000+0  00000+0 0  9994",
        "tle_line2": "2 40730  54.1203 274.2801 0111668  27.1250 333.5048  2.00564999 76491"
      },
      "geometry": {
        "type": "Point",
        "coordinates": [
          -94.73690555785967,
          -12.12248097625973
        ]
      }
    },
    {
      "type": "Feature",
      "properties": {
        "norad_id": 41019,
        "name": "GPS BIIF-11 (PRN 10)",
        "group": "gps-ops",
        "lat": -44.83740645309877,
        "lon": -3.045679451484154,
        "alt_km": 20094.13928759033,
        "timestamp": "2025-12-26T16:33:55.831438+00:00",
        "meta_object_name": "GPS BIIF-11 (PRN 10)",
        "meta_object_id": "2015-062A",
        "meta_epoch": "2025-12-26T06:30:53.632512",
        "meta_mean_motion": 2.00567029,
        "meta_eccentricity": 0.01111286,
        "meta_inclination": 56.842,
        "meta_ra_of_asc_node": 37.479,
        "meta_arg_of_pericenter": 230.2895,
        "meta_mean_anomaly": 128.7854,
        "meta_ephemeris_type": 0,
        "meta_classification_type": "U",
        "meta_norad_cat_id": 41019,
        "meta_element_set_no": 999,
        "meta_rev_at_epoch": 7436,
        "meta_bstar": 0,
        "meta_mean_motion_dot": -4.9e-07,
        "meta_mean_motion_ddot": 0,
        "tle_line1": "1 41019U 15062A   25360.27145408 -.00000049  00000+0  00000+0 0  9998",
        "tle_line2": "2 41019  56.8420  37.4790 0111128 230.2895 128.7854  2.00567029 74361"
      },
      "geometry": {
        "type": "Point",
        "coordinates": [
          -3.045679451484154,
          -44.83740645309877
        ]
      }
    },
    {
      "type": "Feature",
      "properties": {
        "norad_id": 41328,
        "name": "GPS BIIF-12 (PRN 32)",
        "group": "gps-ops",
        "lat": -46.39854134470663,
        "lon": -37.34692615880406,
        "alt_km": 19941.55645831988,
        "timestamp": "2025-12-26T16:33:55.831448+00:00",
        "meta_object_name": "GPS BIIF-12 (PRN 32)",
        "meta_object_id": "2016-007A",
        "meta_epoch": "2025-12-25T20:32:16.174464",
        "meta_mean_motion": 2.00559967,
        "meta_eccentricity": 0.00928247,
        "meta_inclination": 55.4133,
        "meta_ra_of_asc_node": 96.3364,
        "meta_arg_of_pericenter": 243.9276,
        "meta_mean_anomaly": 115.1304,
        "meta_ephemeris_type": 0,
        "meta_classification_type": "U",
        "meta_norad_cat_id": 41328,
        "meta_element_set_no": 999,
        "meta_rev_at_epoch": 7236,
        "meta_bstar": 0,
        "meta_mean_motion_dot": 1.1e-07,
        "meta_mean_motion_ddot": 0,
        "tle_line1": "1 41328U 16007A   25359.85574276  .00000011  00000+0  00000+0 0  9990",
        "tle_line2": "2 41328  55.4133  96.3364 0092824 243.9276 115.1304  2.00559967 72366"
      },
      "geometry": {
        "type": "Point",
        "coordinates": [
          -37.34692615880406,
          -46.39854134470663
        ]
      }
    },
    {
      "type": "Feature",
      "properties": {
        "norad_id": 43873,
        "name": "GPS BIII-1  (PRN 04)",
        "group": "gps-ops",
        "lat": 35.29483005528575,
        "lon": -110.00351518578196,
        "alt_km": 20128.560764654696,
        "timestamp": "2025-12-26T16:33:55.831459+00:00",
        "meta_object_name": "GPS BIII-1  (PRN 04)",
        "meta_object_id": "2018-109A",
        "meta_epoch": "2025-12-24T12:17:00.757248",
        "meta_mean_motion": 2.00553945,
        "meta_eccentricity": 0.00376159,
        "meta_inclination": 55.5731,
        "meta_ra_of_asc_node": 99.0827,
        "meta_arg_of_pericenter": 195.5593,
        "meta_mean_anomaly": 167.4766,
        "meta_ephemeris_type": 0,
        "meta_classification_type": "U",
        "meta_norad_cat_id": 43873,
        "meta_element_set_no": 999,
        "meta_rev_at_epoch": 5157,
        "meta_bstar": 0,
        "meta_mean_motion_dot": 1.7e-07,
        "meta_mean_motion_ddot": 0,
        "tle_line1": "1 43873U 18109A   25358.51181432  .00000017  00000+0  00000+0 0  9998",
        "tle_line2": "2 43873  55.5731  99.0827 0037615 195.5593 167.4766  2.00553945 51575"
      },
      "geometry": {
        "type": "Point",
        "coordinates": [
          -110.00351518578196,
          35.29483005528575
        ]
      }
    },
    {
      "type": "Feature",
      "properties": {
        "norad_id": 44506,
        "name": "GPS BIII-2  (PRN 18)",
        "group": "gps-ops",
        "lat": 26.95426745452668,
        "lon": -1.7220209050572406,
        "alt_km": 20326.87161914576,
        "timestamp": "2025-12-26T16:33:55.831471+00:00",
        "meta_object_name": "GPS BIII-2  (PRN 18)",
        "meta_object_id": "2019-056A",
        "meta_epoch": "2025-12-26T04:52:46.864416",
        "meta_mean_motion": 2.00566478,
        "meta_eccentricity": 0.00577783,
        "meta_inclination": 55.7164,
        "meta_ra_of_asc_node": 338.0189,
        "meta_arg_of_pericenter": 198.675,
        "meta_mean_anomaly": 203.194,
        "meta_ephemeris_type": 0,
        "meta_classification_type": "U",
        "meta_norad_cat_id": 44506,
        "meta_element_set_no": 999,
        "meta_rev_at_epoch": 4660,
        "meta_bstar": 0,
        "meta_mean_motion_dot": -5.8e-07,
        "meta_mean_motion_ddot": 0,
        "tle_line1": "1 44506U 19056A   25360.20332019 -.00000058  00000+0  00000+0 0  9998",
        "tle_line2": "2 44506  55.7164 338.0189 0057778 198.6750 203.1940  2.00566478 46604"
      },
      "geometry": {
        "type": "Point",
        "coordinates": [
          -1.7220209050572406,
          26.95426745452668
        ]
      }
    },
    {
      "type": "Feature",
      "properties": {
        "norad_id": 45854,
        "name": "GPS BIII-3  (PRN 23)",
        "group": "gps-ops",
        "lat": -18.449911444305886,
        "lon": 22.924277831688403,
        "alt_km": 20296.098623538397,
        "timestamp": "2025-12-26T16:33:55.831481+00:00",
        "meta_object_name": "GPS BIII-3  (PRN 23)",
        "meta_object_id": "2020-041A",
        "meta_epoch": "2025-12-26T05:40:05.983968",
        "meta_mean_motion": 2.00561528,
        "meta_eccentricity": 0.00606816,
        "meta_inclination": 56.556,
        "meta_ra_of_asc_node": 35.6606,
        "meta_arg_of_pericenter": 203.8008,
        "meta_mean_anomaly": 165.623,
        "meta_ephemeris_type": 0,
        "meta_classification_type": "U",
        "meta_norad_cat_id": 45854,
        "meta_element_set_no": 999,
        "meta_rev_at_epoch": 4057,
        "meta_bstar": 0,
        "meta_mean_motion_dot": -5e-07,
        "meta_mean_motion_ddot": 0,
        "tle_line1": "1 45854U 20041A   25360.23618037 -.00000050  00000+0  00000+0 0  9993",
        "tle_line2": "2 45854  56.5560  35.6606 0060681 203.8008 165.6230  2.00561528 40571"
      },
      "geometry": {
        "type": "Point",
        "coordinates": [
          22.924277831688403,
          -18.449911444305886
        ]
      }
    },
    {
      "type": "Feature",
      "properties": {
        "norad_id": 46826,
        "name": "GPS BIII-4  (PRN 14)",
        "group": "gps-ops",
        "lat": -38.76733007136338,
        "lon": -177.91221950993705,
        "alt_km": 20231.849892053688,
        "timestamp": "2025-12-26T16:33:55.831492+00:00",
        "meta_object_name": "GPS BIII-4  (PRN 14)",
        "meta_object_id": "2020-078A",
        "meta_epoch": "2025-12-16T01:06:13.902336",
        "meta_mean_motion": 2.00566891,
        "meta_eccentricity": 0.0064754,
        "meta_inclination": 54.0144,
        "meta_ra_of_asc_node": 218.2068,
        "meta_arg_of_pericenter": 203.3802,
        "meta_mean_anomaly": 339.3962,
        "meta_ephemeris_type": 0,
        "meta_classification_type": "U",
        "meta_norad_cat_id": 46826,
        "meta_element_set_no": 999,
        "meta_rev_at_epoch": 3783,
        "meta_bstar": 0,
        "meta_mean_motion_dot": 6.7e-07,
        "meta_mean_motion_ddot": 0,
        "tle_line1": "1 46826U 20078A   25350.04599424  .00000067  00000+0  00000+0 0  9996",
        "tle_line2": "2 46826  54.0144 218.2068 0064754 203.3802 339.3962  2.00566891 37830"
      },
      "geometry": {
        "type": "Point",
        "coordinates": [
          -177.91221950993705,
          -38.76733007136338
        ]
      }
    }
  ]
}